HALOSAT                 
1 43549U 98067NX  20165.83700025  .00022435  00000-0  16218-3 0  9991
2 43549  51.6357 309.1211 0002739  77.8403 282.2903 15.73399866109240
ENDUROSAT ONE           
1 43551U 98067NZ  20165.82625515  .00043312  00000-0  21635-3 0  9999
2 43551  51.6336 297.6651 0001665  50.8396 309.2754 15.81382641109806
EQUISAT                 
1 43552U 98067PA  20165.80107613  .00023001  00000-0  16006-3 0  9991
2 43552  51.6352 307.4160 0003276  79.0963 281.0405 15.74272870109638
AEROCUBE 12A            
1 43556U 18046C   20165.58246994  .00000729  00000-0  37249-4 0  9990
2 43556  51.6417 124.1573 0007718 283.9122  76.0999 15.29799759106787
AEROCUBE 12B            
1 43557U 18046D   20165.90393062  .00000941  00000-0  44834-4 0  9990
2 43557  51.6417 123.2916 0007756 284.3761  75.6358 15.29516619106770
UITMSAT-1               
1 43589U 98067PD  20165.83098751  .00029767  00000-0  18185-3 0  9991
2 43589  51.6352 305.1763 0002263 102.1289 257.9965 15.77108503105404
MAYA-1                  
1 43590U 98067PE  20165.76044607  .00030260  00000-0  18490-3 0  9995
2 43590  51.6298 305.4514 0002069  93.9469 266.1768 15.77094598105325
BHUTAN-1                
1 43591U 98067PF  20165.66995049  .00031520  00000-0  19105-3 0  9994
2 43591  51.6368 305.6760 0002379 103.8926 256.2339 15.77253998105316
SIRIUSSAT-1             
1 43595U 98067PG  20165.84498820  .00025228  00000-0  17232-3 0  9990
2 43595  51.6308 309.8062 0001269  30.1796 329.9276 15.74647752104453
SIRIUSSAT-2             
1 43596U 98067PH  20165.84306108  .00025323  00000-0  17382-3 0  9990
2 43596  51.6323 310.6190 0001646  33.2304 326.8798 15.74531420104449
TANUSHA-3               
1 43597U 98067PJ  20165.82909801  .00071756  00000-0  28855-3 0  9996
2 43597  51.6279 297.4999 0002407 324.3013  35.7830 15.85766684104612
SURFSAT                 
1 43614U 18070B   20165.69970274  .00002258  00000-0  58198-4 0  9994
2 43614  93.0199 153.0356 0015126   3.3410 356.7942 15.39181474 97904
CP7 (DAVE)              
1 43615U 18070C   20165.86081830  .00002206  00000-0  57109-4 0  9999
2 43615  93.0200 153.0928 0015229   2.1392 357.9924 15.39037355 97926
ELFIN-B                 
1 43616U 18070D   20165.70952979  .00003073  00000-0  76038-4 0  9999
2 43616  93.0163 152.9716 0015712   4.4049 355.7341 15.40383608 97947
ELFIN-A                 
1 43617U 18070E   20165.74331594  .00003338  00000-0  82137-4 0  9999
2 43617  93.0215 153.4942 0014894   1.5448 358.5850 15.40564965 97958
CUBEBEL-1 (BSUSAT-1)    
1 43666U 18083E   20165.93787309  .00000908  00000-0  47550-4 0  9997
2 43666  97.4889 192.4390 0015490  18.9131  50.2014 15.18258656 90088
DEBRISSAT-2             
1 43680U 98067PR  20151.69072398  .11468650  12477-4  51439-3 0  9995
2 43680  51.6154 356.6377 0010832 273.4515  86.5274 16.42437352111263
CICERO 10               
1 43690U 18088A   20165.80685308  .00000656  00000-0  28371-4 0  9991
2 43690  85.0389  80.7260 0013718 331.9766  28.0734 15.20231256 88204
IRVINE01                
1 43693U 18088D   20165.81223945  .00001769  00000-0  73619-4 0  9991
2 43693  85.0358  79.4241 0015969 310.9746  49.0114 15.22871908 88292
PROXIMA I               
1 43694U 18088E   20165.80322605  .00000807  00000-0  33511-4 0  9993
2 43694  85.0332  79.2694 0017173 301.0899  58.8657 15.21972039 88290
PROXIMA II              
1 43696U 18088G   20165.80145258  .00000782  00000-0  32394-4 0  9992
2 43696  85.0334  79.2741 0017217 301.0145  58.9406 15.21974068 88286
FACSAT-1                
1 43721U 18096C   20165.86956505  .00001288  00000-0  50873-4 0  9995
2 43721  97.4205 239.4629 0018897 132.0356 228.2495 15.27219602 85846
CENTAURI-2              
1 43722U 18096D   20165.76555617  .00001651  00000-0  63406-4 0  9994
2 43722  97.4216 239.6311 0018919 132.1793 228.1057 15.27745679 85830
INNOSAT-2               
1 43738U 18096V   20165.86367766  .00002412  00000-0  84187-4 0  9993
2 43738  97.4232 241.6830 0024649 139.3199 220.9889 15.30322555 85987
SIRION PATHFINDER-2     
1 43759U 18099B   20165.83076173  .00000126  00000-0  16662-4 0  9998
2 43759  97.7054 237.5527 0013930 188.9856 171.1117 14.95279705 83395
CORVUS-BC 4             
1 43767U 18099K   20165.83754161 -.00000163  00000-0 -97919-5 0  9995
2 43767  97.7034 236.9743 0011379 192.1143 167.9805 14.94725168 83368
MOVE-II                 
1 43780U 18099Y   20165.77730276 -.00000041  00000-0  14458-5 0  9995
2 43780  97.7061 237.4298 0012988 200.9061 159.1630 14.95400490 83366
SPACEBEE-7              
1 43816U 18099BL  20165.85115928 -.00000101  00000-0 -38704-5 0  9993
2 43816  97.7072 237.8918 0013293 184.8435 175.2660 14.95692635 82956
SPACEBEE-5              
1 43817U 18099BM  20165.67229492  .00001056  00000-0  98390-4 0  9990
2 43817  97.7121 238.1554 0013336 184.5778 175.5324 14.96300966 82940
SPACEBEE-6              
1 43818U 18099BN  20165.74818762  .00000964  00000-0  91224-4 0  9999
2 43818  97.7088 237.9274 0013383 183.8833 176.2286 14.95883928 83090
SHIELDS 1               
1 43850U 18104B   20165.78216199  .00000439  00000-0  17681-4 0  9994
2 43850  85.0290 177.7825 0017312  84.7367 275.5849 15.21386380 82919
STF-1                   
1 43852U 18104D   20165.46606927  .00000958  00000-0  40900-4 0  9999
2 43852  85.0333 178.5298 0017059  98.1788 262.1389 15.21278950 82842
ZACUBE-2                
1 43907U 18111AH  20165.84254207  .00000317  00000-0  15624-4 0  9994
2 43907  97.2662  65.7158 0022212 152.2852 207.9575 15.24587480 81461
LUME 1                  
1 43908U 18111AJ  20165.76776253  .00000753  00000-0  32790-4 0  9993
2 43908  97.2662  65.8115 0021942 152.0199 208.2224 15.25034015 81464
AOBA VELOX-IV           
1 43940U 19003J   20165.70403840  .00001459  00000-0  60917-4 0  9999
2 43940  97.2279 217.1119 0022334 233.9742 125.9427 15.25003602 78070
CATSAT-2                
1 44029U 98067PV  20165.67490413  .00014079  00000-0  14469-3 0  9995
2 44029  51.6390 335.1993 0003886  79.1547 280.9885 15.65189238 77930
DELPHINI                
1 44030U 98067PW  20165.69463238  .00015417  00000-0  15189-3 0  9991
2 44030  51.6349 333.7188 0003419  77.4516 282.6862 15.66170150 77922
UNITE                   
1 44031U 98067PX  20165.72407102  .00007592  00000-0  93655-4 0  9994
2 44031  51.6384 340.7394 0003159  70.5364 289.5971 15.61284006 77833
CATSAT-1                
1 44033U 98067PZ  20165.67481388  .00014589  00000-0  14967-3 0  9990
2 44033  51.6393 335.2049 0003813  76.8334 283.3087 15.65199105 77844
RAAVANA-1               
1 44329U 98067QE  20165.79318007  .00008002  00000-0  11176-3 0  9990
2 44329  51.6404 352.5043 0005317 354.6705   5.4230 15.57861199 56436
UGUISU                  
1 44330U 98067QF  20165.80545668  .00007622  00000-0  10710-3 0  9999
2 44330  51.6392 352.5814 0005340 353.0275   7.0642 15.57777893 56411
NEPALISAT-1             
1 44331U 98067QG  20165.78566016  .00008174  00000-0  11391-3 0  9996
2 44331  51.6389 352.4517 0005402 356.4980   3.5974 15.57884881 56422
SPOOQY-1                
1 44332U 98067QH  20165.78888453  .00007854  00000-0  11010-3 0  9991
2 44332  51.6395 352.4705 0004403   0.7593 359.3406 15.57792897 56380
SPACEBEE-9              
1 44370U 19037F   20165.33144036  .00005955  00000-0  13792-3 0  9995
2 44370  45.0060 138.7981 0011996 164.0393 196.0877 15.43396741 53968
SPACEBEE-8              
1 44371U 19037G   20165.60847809  .00010779  00000-0  21116-3 0  9993
2 44371  45.0061 131.5891 0010030 165.7856 194.3318 15.47563524 54074
IOD-1 GEMS              
1 44385U 98067QK  20165.78184226  .00013168  00000-0  16509-3 0  9999
2 44385  51.6411 350.9747 0001704 311.8191  48.2657 15.60104001 53913
MOVE-IIB                
1 44398U 19038N   20165.84720381  .00000888  00000-0  54680-4 0  9997
2 44398  97.5357 127.1239 0026270 136.8846 223.4448 15.12315479 52039
SONATE                  
1 44400U 19038Q   20165.81458439  .00000309  00000-0  21705-4 0  9990
2 44400  97.5394 127.1076 0026301 135.9311 224.4022 15.11952133 52026
LUCKY-7                 
1 44406U 19038W   20165.69856570  .00000497  00000-0  32384-4 0  9993
2 44406  97.5388 127.0956 0025778 135.8571 224.4723 15.12216378 52006
BEESAT 9                
1 44412U 19038AC  20165.82972358  .00000655  00000-0  41407-4 0  9990
2 44412  97.5380 127.2062 0023710 140.6504 219.6455 15.12294333 51722
JAISAT-1                
1 44419U 19038F   20165.78502422  .00000642  00000-0  40131-4 0  9992
2 44419  97.5383 127.4236 0022610 139.7762 220.5147 15.12777689 52045
SWIATOWID               
1 44426U 98067QL  20165.82147775  .00018093  00000-0  21699-3 0  9996
2 44426  51.6422 350.2011 0001755 312.7558 174.2098 15.60984583 53944
KRAKSAT                 
1 44427U 98067QM  20165.82277581  .00006624  00000-0  10047-3 0  9998
2 44427  51.6437 355.4760 0002378 303.1459 181.3488 15.55936705 53911
VCC A                   
1 44428U 98067QN  20165.78432882  .00007445  00000-0  10690-3 0  9997
2 44428  51.6417 353.9879 0001905 330.9272  29.1614 15.57230858 53930
ENTRYSAT                
1 44429U 98067QP  20165.82034852  .00008624  00000-0  11842-3 0  9998
2 44429  51.6396 352.7027 0001575 317.2249  42.8621 15.58203859 53958
VCC C                   
1 44430U 98067QQ  20165.79598124  .00010540  00000-0  13723-3 0  9993
2 44430  51.6394 351.7997 0001458 337.7699  22.3231 15.59355358 52782
VCC B                   
1 44431U 98067QR  20165.78413173  .00007441  00000-0  10669-3 0  9995
2 44431  51.6407 353.9728 0002036 329.4900  30.5973 15.57269125 53879
ATL-1                   
1 44830U 19084G   20165.77923535  .00044622  00000-0  25567-3 0  9992
2 44830  96.9746  34.9026 0024305 246.7546 113.1163 15.78267537 29877
SMOG-P                  
1 44832U 19084J   20165.65234520  .00048956  00000-0  26487-3 0  9996
2 44832  96.9748  34.9373 0023045 245.0080 114.8795 15.79566031 29861
